{
  "type": "FeatureCollection",
  "features": [
    {
      "type": "Feature",
      "properties": {
        "norad_id": 66849,
        "name": "STARLINK-36102",
        "group": "last-30-days",
        "lat": 38.50806386627325,
        "lon": 126.26130259222036,
        "alt_km": 354.93696495663517,
        "timestamp": "2025-12-21T16:47:53.450563+00:00",
        "meta_object_name": "STARLINK-36102",
        "meta_object_id": "2025-281B",
        "meta_epoch": "2025-12-21T12:00:02.000160",
        "meta_mean_motion": 15.70347968,
        "meta_eccentricity": 0.0001363,
        "meta_inclination": 43.0003,
        "meta_ra_of_asc_node": 68.8313,
        "meta_arg_of_pericenter": 282.7448,
        "meta_mean_anomaly": 92.0845,
        "meta_ephemeris_type": 0,
        "meta_classification_type": "U",
        "meta_norad_cat_id": 66849,
        "meta_element_set_no": 999,
        "meta_rev_at_epoch": 280,
        "meta_bstar": -0.017459,
        "meta_mean_motion_dot": -0.01942546,
        "meta_mean_motion_ddot": 0,
        "tle_line1": "1 66849U 25281B   25355.50002315 -.01942546  00000+0 -17459-1 0  9996",
        "tle_line2": "2 66849  43.0003  68.8313 0001363 282.7448  92.0845 15.70347968  2800"
      },
      "geometry": {
        "type": "Point",
        "coordinates": [
          126.26130259222036,
          38.50806386627325
        ]
      }
    },
    {
      "type": "Feature",
      "properties": {
        "norad_id": 66850,
        "name": "STARLINK-36105",
        "group": "last-30-days",
        "lat": 39.166323131629824,
        "lon": 128.57051052011494,
        "alt_km": 354.8774723890501,
        "timestamp": "2025-12-21T16:47:53.450575+00:00",
        "meta_object_name": "STARLINK-36105",
        "meta_object_id": "2025-281C",
        "meta_epoch": "2025-12-21T12:00:02.000160",
        "meta_mean_motion": 15.7034832,
        "meta_eccentricity": 0.0001426,
        "meta_inclination": 43.0004,
        "meta_ra_of_asc_node": 68.8267,
        "meta_arg_of_pericenter": 283.6211,
        "meta_mean_anomaly": 93.1238,
        "meta_ephemeris_type": 0,
        "meta_classification_type": "U",
        "meta_norad_cat_id": 66850,
        "meta_element_set_no": 999,
        "meta_rev_at_epoch": 280,
        "meta_bstar": -0.017453,
        "meta_mean_motion_dot": -0.01941961,
        "meta_mean_motion_ddot": 0,
        "tle_line1": "1 66850U 25281C   25355.50002315 -.01941961  00000+0 -17453-1 0  9992",
        "tle_line2": "2 66850  43.0004  68.8267 0001426 283.6211  93.1238 15.70348320  2800"
      },
      "geometry": {
        "type": "Point",
        "coordinates": [
          128.57051052011494,
          39.166323131629824
        ]
      }
    },
    {
      "type": "Feature",
      "properties": {
        "norad_id": 66851,
        "name": "STARLINK-36094",
        "group": "last-30-days",
        "lat": 39.777340909396784,
        "lon": 130.91924687844977,
        "alt_km": 354.7439835846453,
        "timestamp": "2025-12-21T16:47:53.450587+00:00",
        "meta_object_name": "STARLINK-36094",
        "meta_object_id": "2025-281D",
        "meta_epoch": "2025-12-21T12:00:02.000160",
        "meta_mean_motion": 15.70346348,
        "meta_eccentricity": 0.0001352,
        "meta_inclination": 43.0004,
        "meta_ra_of_asc_node": 68.8217,
        "meta_arg_of_pericenter": 285.098,
        "meta_mean_anomaly": 93.5624,
        "meta_ephemeris_type": 0,
        "meta_classification_type": "U",
        "meta_norad_cat_id": 66851,
        "meta_element_set_no": 999,
        "meta_rev_at_epoch": 280,
        "meta_bstar": -0.017408,
        "meta_mean_motion_dot": -0.01937333,
        "meta_mean_motion_ddot": 0,
        "tle_line1": "1 66851U 25281D   25355.50002315 -.01937333  00000+0 -17408-1 0  9991",
        "tle_line2": "2 66851  43.0004  68.8217 0001352 285.0980  93.5624 15.70346348  2804"
      },
      "geometry": {
        "type": "Point",
        "coordinates": [
          130.91924687844977,
          39.777340909396784
        ]
      }
    },
    {
      "type": "Feature",
      "properties": {
        "norad_id": 66852,
        "name": "STARLINK-35992",
        "group": "last-30-days",
        "lat": 40.3403492778602,
        "lon": 133.3108906210937,
        "alt_km": 354.66529742192415,
        "timestamp": "2025-12-21T16:47:53.450615+00:00",
        "meta_object_name": "STARLINK-35992",
        "meta_object_id": "2025-281E",
        "meta_epoch": "2025-12-21T12:00:02.000160",
        "meta_mean_motion": 15.70342178,
        "meta_eccentricity": 0.0001278,
        "meta_inclination": 43.0004,
        "meta_ra_of_asc_node": 68.8175,
        "meta_arg_of_pericenter": 282.8143,
        "meta_mean_anomaly": 97.7653,
        "meta_ephemeris_type": 0,
        "meta_classification_type": "U",
        "meta_norad_cat_id": 66852,
        "meta_element_set_no": 999,
        "meta_rev_at_epoch": 280,
        "meta_bstar": -0.017358,
        "meta_mean_motion_dot": -0.01932062,
        "meta_mean_motion_ddot": 0,
        "tle_line1": "1 66852U 25281E   25355.50002315 -.01932062  00000+0 -17358-1 0  9990",
        "tle_line2": "2 66852  43.0004  68.8175 0001278 282.8143  97.7653 15.70342178  2806"
      },
      "geometry": {
        "type": "Point",
        "coordinates": [
          133.3108906210937,
          40.3403492778602
        ]
      }
    },
    {
      "type": "Feature",
      "properties": {
        "norad_id": 66853,
        "name": "STARLINK-35986",
        "group": "last-30-days",
        "lat": 40.854425770921225,
        "lon": 135.74690133313032,
        "alt_km": 354.7151895499119,
        "timestamp": "2025-12-21T16:47:53.450625+00:00",
        "meta_object_name": "STARLINK-35986",
        "meta_object_id": "2025-281F",
        "meta_epoch": "2025-12-21T12:00:02.000160",
        "meta_mean_motion": 15.70339443,
        "meta_eccentricity": 0.0001457,
        "meta_inclination": 43.0004,
        "meta_ra_of_asc_node": 68.8126,
        "meta_arg_of_pericenter": 282.8655,
        "meta_mean_anomaly": 99.636,
        "meta_ephemeris_type": 0,
        "meta_classification_type": "U",
        "meta_norad_cat_id": 66853,
        "meta_element_set_no": 999,
        "meta_rev_at_epoch": 280,
        "meta_bstar": -0.01735,
        "meta_mean_motion_dot": -0.01931267,
        "meta_mean_motion_ddot": 0,
        "tle_line1": "1 66853U 25281F   25355.50002315 -.01931267  00000+0 -17350-1 0  9999",
        "tle_line2": "2 66853  43.0004  68.8126 0001457 282.8655  99.6360 15.70339443  2807"
      },
      "geometry": {
        "type": "Point",
        "coordinates": [
          135.74690133313032,
          40.854425770921225
        ]
      }
    },
    {
      "type": "Feature",
      "properties": {
        "norad_id": 66854,
        "name": "STARLINK-36087",
        "group": "last-30-days",
        "lat": 41.31504132796561,
        "lon": 138.2118332329303,
        "alt_km": 354.5794108985847,
        "timestamp": "2025-12-21T16:47:53.450635+00:00",
        "meta_object_name": "STARLINK-36087",
        "meta_object_id": "2025-281G",
        "meta_epoch": "2025-12-21T12:00:02.000160",
        "meta_mean_motion": 15.70349036,
        "meta_eccentricity": 0.0001293,
        "meta_inclination": 43.0004,
        "meta_ra_of_asc_node": 68.8075,
        "meta_arg_of_pericenter": 280.141,
        "meta_mean_anomaly": 104.2732,
        "meta_ephemeris_type": 0,
        "meta_classification_type": "U",
        "meta_norad_cat_id": 66854,
        "meta_element_set_no": 999,
        "meta_rev_at_epoch": 280,
        "meta_bstar": -0.017468,
        "meta_mean_motion_dot": -0.01943441,
        "meta_mean_motion_ddot": 0,
        "tle_line1": "1 66854U 25281G   25355.50002315 -.01943441  00000+0 -17468-1 0  9997",
        "tle_line2": "2 66854  43.0004  68.8075 0001293 280.1410 104.2732 15.70349036  2804"
      },
      "geometry": {
        "type": "Point",
        "coordinates": [
          138.2118332329303,
          41.31504132796561
        ]
      }
    },
    {
      "type": "Feature",
      "properties": {
        "norad_id": 66855,
        "name": "STARLINK-36090",
        "group": "last-30-days",
        "lat": 41.72373233768318,
        "lon": 140.71388346609965,
        "alt_km": 354.63573362387433,
        "timestamp": "2025-12-21T16:47:53.450645+00:00",
        "meta_object_name": "STARLINK-36090",
        "meta_object_id": "2025-281H",
        "meta_epoch": "2025-12-21T12:00:02.000160",
        "meta_mean_motion": 15.70349606,
        "meta_eccentricity": 0.0001467,
        "meta_inclination": 43.0014,
        "meta_ra_of_asc_node": 68.8024,
        "meta_arg_of_pericenter": 280.0391,
        "meta_mean_anomaly": 106.2925,
        "meta_ephemeris_type": 0,
        "meta_classification_type": "U",
        "meta_norad_cat_id": 66855,
        "meta_element_set_no": 999,
        "meta_rev_at_epoch": 268,
        "meta_bstar": -0.017443,
        "meta_mean_motion_dot": -0.01941144,
        "meta_mean_motion_ddot": 0,
        "tle_line1": "1 66855U 25281H   25355.50002315 -.01941144  00000+0 -17443-1 0  9999",
        "tle_line2": "2 66855  43.0014  68.8024 0001467 280.0391 106.2925 15.70349606  2685"
      },
      "geometry": {
        "type": "Point",
        "coordinates": [
          140.71388346609965,
          41.72373233768318
        ]
      }
    }
  ]
}